ASIASAT 6               
1 40141U 14052A   17217.80323753 -.00000371  00000-0  00000-0 0  9993
2 40141   0.0152 256.8356 0000853 216.2471 250.5065  1.00269748 10702
OPTUS 10                
1 40146U 14054A   17216.67389723 -.00000083  00000-0  00000-0 0  9993
2 40146   0.0197  89.9911 0001559  38.2314 231.7836  1.00272452 10657
MEASAT-3B               
1 40147U 14054B   17217.87189797 -.00000251  00000-0  00000-0 0  9993
2 40147   0.0353 330.6719 0000835 151.8511 237.4782  1.00271848 10719
LUCH (OLYMP)            
1 40258U 14058A   17218.21046471  .00000142  00000-0  00000-0 0  9998
2 40258   0.0449 243.7450 0001346 235.8351 294.1796  1.00678121 10481
HIMAWARI-8              
1 40267U 14060A   17216.73859699 -.00000286  00000-0  00000-0 0  9990
2 40267   0.0379 235.3560 0000976 266.8331 217.8098  1.00268857 10390
IRNSS-1C                
1 40269U 14061A   17217.58425142 -.00000171  00000-0  00000-0 0  9992
2 40269   2.9317 247.7027 0020136   4.8857 355.1259  1.00271092 10225
INTELSAT 30 (IS-30)     
1 40271U 14062A   17217.73795969 -.00000160  00000-0  00000-0 0  9998
2 40271   0.0179  68.9742 0002193  19.9006  36.1992  1.00272275 10231
ARSAT 1                 
1 40272U 14062B   17218.19560014 -.00000268  00000-0  00000-0 0  9990
2 40272   0.0569 264.6031 0001341 232.7181 176.2128  1.00272460 10158
EXPRESS-AM6             
1 40277U 14064A   17218.14503802  .00000089  00000-0  00000-0 0  9994
2 40277   0.0135 205.1308 0000500 352.0310 222.9112  1.00270443  9121
GSAT-16                 
1 40332U 14078A   17217.97301381  .00000075  00000-0  00000-0 0  9994
2 40332   0.0810 270.6637 0007144 183.2900 266.1211  1.00274485  9800
DIRECTV 14              
1 40333U 14078B   17218.23935024 -.00000134  00000-0  00000-0 0  9999
2 40333   0.0471 265.6383 0000797  77.1717 319.0766  1.00272200  9705
YAMAL 401               
1 40345U 14082A   17217.63240470 -.00000236  00000-0  00000-0 0  9997
2 40345   0.0367 145.8713 0000141 231.7455 254.2858  1.00268702  9948
ASTRA 2G                
1 40364U 14089A   17218.04752256  .00000141  00000-0  00000-0 0  9995
2 40364   0.0323 353.1678 0004128  94.9046 271.9682  1.00273223  9562
FENGYUN 2G              
1 40367U 14090A   17218.27476485 -.00000338  00000-0  00000-0 0  9991
2 40367   0.3424 247.6879 0003104  18.4143 252.0202  1.00284668  9587
INMARSAT 5-F2           
1 40384U 15005A   17218.20601733 -.00000294  00000-0  00000-0 0  9997
2 40384   0.0208  85.0377 0000787   6.2999 242.7503  1.00269707  8562
ABS-3A                  
1 40424U 15010A   17218.13383107 -.00000036  00000-0  00000-0 0  9996
2 40424   0.0132  66.4365 0001879 346.4048 307.1690  1.00271629  8963
EUTELSAT 115 WEST B     
1 40425U 15010B   17217.44645427 -.00000033  00000-0  00000-0 0  9993
2 40425   0.0086 222.8082 0000406  96.3374  40.8439  1.00270372  8937
EXPRESS-AM7             
1 40505U 15012A   17217.91160220  .00000141  00000-0  00000-0 0  9998
2 40505   0.0266  88.8084 0002429  37.2199 196.8032  1.00275982  8892
IRNSS-1D                
1 40547U 15018A   17217.63367950 -.00000295  00000-0  00000-0 0  9999
2 40547  28.9804 294.2506 0020768 184.8684 175.2056  1.00274842  8780
BEIDOU I1-S             
1 40549U 15019A   17218.23054904 -.00000188  00000-0  00000-0 0  9992
2 40549  54.3523 333.2037 0042202 187.4011 332.8351  1.00284092  8626
THOR 7                  
1 40613U 15022A   17218.12732085 -.00000017  00000-0  00000-0 0  9990
2 40613   0.0315 213.8483 0002932 281.8903 224.2782  1.00272445  8360
TURKMENALEM52E/MONACOSAT
1 40617U 15023A   17217.98136297  .00000095  00000-0  00000-0 0  9996
2 40617   0.0162  71.1800 0002880  67.5796 221.2555  1.00270523  8374
DIRECTV 15              
1 40663U 15026A   17217.41279940 -.00000112  00000-0  00000-0 0  9992
2 40663   0.0125  93.0466 0000581  18.7865 248.1657  1.00273042  8062
SKY MEXICO-1            
1 40664U 15026B   17217.34643429 -.00000243  00000-0  00000-0 0  9997
2 40664   0.0106  97.6372 0002239  37.0622 225.3115  1.00272938  8075
METEOSAT-11 (MSG-4)     
1 40732U 15034A   17217.79732239 -.00000037  00000-0  00000-0 0  9990
2 40732   1.7410 238.2285 0000889 302.0633  57.7223  1.00274547  7589
STAR ONE C4             
1 40733U 15034B   17217.32209002 -.00000274  00000-0  00000-0 0  9990
2 40733   0.0355 337.2445 0001454 143.4282 239.3343  1.00271482  7579
INTELSAT 34 (IS-34)     
1 40874U 15039A   17216.28465720 -.00000294  00000-0  00000-0 0  9998
2 40874   0.0204  78.9007 0000644 340.6124 300.4932  1.00270362  7207
EUTELSAT 8 WEST B       
1 40875U 15039B   17217.15036175 -.00000074  00000-0  00000-0 0  9990
2 40875   0.0661 358.2737 0002187 127.5482 234.1910  1.00272202  7228
GSAT-6                  
1 40880U 15041A   17217.89533698 -.00000174  00000-0  00000-0 0  9993
2 40880   0.0598 102.0451 0006589 159.6991  98.1740  1.00271850  7184
INMARSAT 5-F3           
1 40882U 15042A   17216.63068117  .00000041  00000-0  00000-0 0  9998
2 40882   0.0199  82.9155 0000770  28.3171 248.7757  1.00271030  7088
TJS-1                   
1 40892U 15046A   17218.32323565 -.00000165  00000-0  00000-0 0  9990
2 40892   0.0429 239.7957 0003366 115.0650 231.5425  1.00271627  7092
EXPRESS-AM8             
1 40895U 15048A   17217.98382662 -.00000120  00000-0  00000-0 0  9990
2 40895   0.0420 237.3363 0000386  31.0264  26.5144  1.00272000  6914
BEIDOU I2-S             
1 40938U 15053A   17218.15474008 -.00000125  00000-0  00000-0 0  9995
2 40938  54.1348 296.1129 0048243 175.3776 354.8525  1.00283491  6903
SKY MUSTER (NBN1A)      
1 40940U 15054A   17216.73969871 -.00000288  00000-0  00000-0 0  9998
2 40940   0.0112  88.3831 0001999  39.7417 231.8932  1.00270362  6828
ARSAT 2                 
1 40941U 15054B   17217.35257749 -.00000234  00000-0  00000-0 0  9993
2 40941   0.0678 262.5287 0001712 219.3161 238.1644  1.00273149  6862
MORELOS 3               
1 40946U 15056A   17217.35722610 -.00000044  00000-0  00000-0 0  9993
2 40946   6.3605 329.4086 0003321 184.8681 175.3011  1.00271962  6824
APSTAR 9                
1 40982U 15059A   17217.73213825 -.00000276  00000-0  00000-0 0  9998
2 40982   0.0146 229.9701 0000591 306.0329 183.9974  1.00267556  6698
TURKSAT 4B              
1 40984U 15060A   17217.98702449  .00000106  00000-0  00000-0 0  9995
2 40984   0.0112  52.4111 0002279  77.7360 229.8728  1.00271305  6659
CHINASAT 2C (ZX 2C)     
1 41021U 15063A   17218.27476485 -.00000333  00000-0  00000-0 0  9995
2 41021   0.0477 255.4541 0001108   7.5499 254.3344  1.00273736  6558
GSAT-15                 
1 41028U 15065A   17217.86644145 -.00000267  00000-0  00000-0 0  9994
2 41028   0.1029 267.1428 0001664 173.5038 279.3650  1.00271529  6402
BADR-7 (ARABSAT-6B)     
1 41029U 15065B   17218.05339827  .00000136  00000-0  00000-0 0  9999
2 41029   0.0573 246.2756 0003667 327.0823 146.6122  1.00273690  6457
LAOSAT 1                
1 41034U 15067A   17217.76950048 -.00000352  00000-0  00000-0 0  9999
2 41034   0.0426 271.8813 0003257 265.2659 182.8478  1.00269617  6385
TELSTAR 12V             
1 41036U 15068A   17218.16702051 -.00000128  00000-0  00000-0 0  9997
2 41036   0.0155  79.0692 0002223  51.4277 229.5225  1.00270518  6169
CHINASAT 1C (ZX 1C)     
1 41103U 15073A   17217.94720394 -.00000160  00000-0  00000-0 0  9999
2 41103   0.0498 250.9164 0002332  18.1241 108.1604  1.00272977  6210
ELEKTRO-L 2             
1 41105U 15074A   17217.91434882 -.00000106  00000-0  00000-0 0  9993
2 41105   0.0312 285.9263 0001944 338.7093  95.2008  1.00272904  6055
COSMOS 2513             
1 41121U 15075A   17218.07996613 -.00000147  00000-0  00000-0 0  9990
2 41121   0.0632 115.6340 0003467  52.6930 255.4860  1.00271120  6142
EXPRESS-AMU1            
1 41191U 15082A   17218.13309851  .00000146  00000-0  00000-0 0  9992
2 41191   0.0097  93.6073 0002357  35.4327 269.8047  1.00273314  6051
GAOFEN 4                
1 41194U 15083A   17217.62303028 -.00000344  00000-0  00000-0 0  9990
2 41194   0.0454 255.6893 0004688 327.7574  60.9131  1.00274663  6020
BELINTERSAT-1           
1 41238U 16001A   17217.11434865  .00000097  00000-0  00000-0 0  9992
2 41238   0.0240 271.5123 0001957 193.2151 301.7982  1.00274538  5804
IRNSS-1E                
1 41241U 16003A   17215.13941032 -.00000313  00000-0  00000-0 0  9999
2 41241  28.8560 113.8821 0018397 185.2657 174.7145  1.00276608  5700
INTELSAT 29E (IS-29E)   
1 41308U 16004A   17217.26669480 -.00000291  00000-0  00000-0 0  9999
2 41308   0.0211 272.5055 0001974 213.7386 233.7741  1.00270584  5727
EUTELSAT 9B             
1 41310U 16005A   17218.10041330  .00000052  00000-0  00000-0 0  9999
2 41310   0.0230 104.8641 0001939 156.1108  98.9963  1.00270996  5658
SES-9                   
1 41380U 16013A   17217.82542025 -.00000354  00000-0  00000-0 0  9996
2 41380   0.0592 278.1216 0001757 203.0705 238.8181  1.00271957  5297
EUTELSAT 65 WEST A      
1 41382U 16014A   17217.30876493 -.00000285  00000-0  00000-0 0  9994
2 41382   0.0467  21.3863 0001595 118.1657 220.4525  1.00271895  5108
IRNSS-1F                
1 41384U 16015A   17217.76933330  .00000150  00000-0  00000-0 0  9991
2 41384   4.0583 263.8671 0021702 183.4709 176.6204  1.00277570  5234
BEIDOU IGSO 6           
1 41434U 16021A   17218.09765375 -.00000113  00000-0  10000-3 0  9997
2 41434  55.6012  71.8510 0027568 178.8304 193.1028  1.00260746  5036
IRNSS-1G                
1 41469U 16027A   17217.50446571 -.00000343  00000-0  00000-0 0  9991
2 41469   4.1306 265.2667 0004285 209.9673 150.1269  1.00268989  4730
JCSAT 2B                
1 41471U 16028A   17217.69886179 -.00000175  00000-0  00000-0 0  9990
2 41471   0.0212  86.1508 0002272  41.8999 231.9698  1.00270309  4627
THAICOM 8               
1 41552U 16031A   17217.90802839 -.00000131  00000-0  00000-0 0  9991
2 41552   0.0578  47.2409 0003038  20.5554 292.2290  1.00273802  4272
